{
  "type": "FeatureCollection",
  "features": [
    {
      "type": "Feature",
      "properties": {},
      "geometry": {
        "coordinates": [
          [
            [
              48.31340046687234,
              13.693220259137263
            ],
            [
              46.50970236826265,
              11.10787440517673
            ],
            [
              51.39342969537768,
              12.183683867251347
            ],
            [
              51.70520865257794,
              10.478928683593551
            ],
            [
              50.72392941457571,
              8.438763219598243
            ],
            [
              57.27903431441777,
              8.57193398660101
            ],
            [
              59.492315207162335,
              13.722093410667796
            ],
            [
              53.69841965792105,
              15.984484111354007
            ],
            [
              48.31340046687234,
              13.693220259137263
            ]
          ]
        ],
        "type": "Polygon"
      }
    }
  ]
}
